{"pageProps":{"items":[{"id":1,"name_uz":"Smartfon va gadjetlar","name_ru":"Телефоны и гаджеты","image":"https://api.sdb.uz/public/uploads/catImage_G0nbHo-2021-12-12T13-43-19.841Z.svg","slug":"telefon-va-gadjetlar","parent_id":0,"position":null,"views":0,"is_featured":0,"status":1,"priority":0,"children":[{"id":2,"name_uz":"Smartfon va telefonlar","name_ru":"Смартфоны и телефоны","image":null,"slug":"smartfon-va-telefonlar","parent_id":1,"position":null,"views":132,"is_featured":1,"status":1,"priority":0,"children":[{"id":3,"name_uz":"Smartfonlar","name_ru":"Смартфоны","image":null,"slug":"smartfonlar","parent_id":2,"position":null,"views":40431,"is_featured":null,"status":1,"priority":0,"children":[]},{"id":4,"name_uz":"Planshetlar","name_ru":"Планшеты","image":null,"slug":"planshetlar","parent_id":2,"position":null,"views":4771,"is_featured":null,"status":1,"priority":0,"children":[]}]},{"id":5,"name_uz":"Telefonlar","name_ru":"Телефоны","image":null,"slug":"telefonlar","parent_id":1,"position":null,"views":132,"is_featured":1,"status":1,"priority":0,"children":[{"id":6,"name_uz":"Uy telefonlari","name_ru":"Домашние телефоны","image":null,"slug":"uy-telefonlari","parent_id":5,"position":null,"views":1945,"is_featured":null,"status":1,"priority":0,"children":[]}]},{"id":8,"name_uz":"Gadjetlar","name_ru":"Гаджеты","image":null,"slug":"gadjetlar","parent_id":1,"position":null,"views":132,"is_featured":1,"status":1,"priority":0,"children":[{"id":9,"name_uz":"Smart soatlar","name_ru":"Smart Watches","image":null,"slug":"smart-soatlar","parent_id":8,"position":null,"views":1210,"is_featured":null,"status":1,"priority":0,"children":[]}]},{"id":10,"name_uz":"Aksessuarlar","name_ru":"Аксессуары","image":null,"slug":"aksessuarlar","parent_id":1,"position":null,"views":132,"is_featured":1,"status":1,"priority":0,"children":[{"id":11,"name_uz":"Power bank","name_ru":"Power bank","image":null,"slug":"power-bank","parent_id":10,"position":null,"views":814,"is_featured":null,"status":1,"priority":0,"children":[]},{"id":12,"name_uz":"Garnituralar","name_ru":"Гарнитуры","image":null,"slug":"garnituralar","parent_id":10,"position":null,"views":902,"is_featured":null,"status":1,"priority":0,"children":[]},{"id":13,"name_uz":"Kabellar","name_ru":"Кабели","image":null,"slug":"kabellar","parent_id":10,"position":null,"views":819,"is_featured":null,"status":1,"priority":0,"children":[]},{"id":14,"name_uz":"G‘iloflar va himoya oynalari","name_ru":"Чехлы и защитные стекла","image":null,"slug":"giloflar-va-himoya-oynalari","parent_id":10,"position":null,"views":874,"is_featured":null,"status":1,"priority":0,"children":[]},{"id":15,"name_uz":"Zaryadlovchi qurilmalar","name_ru":"Зарядные устройства","image":null,"slug":"zaryadlovchi-qurilmalar","parent_id":10,"position":null,"views":727,"is_featured":null,"status":1,"priority":0,"children":[{"id":112,"name_uz":"IPHONE USB POWER ADAPTER","name_ru":"USB-АДАПТЕР ПИТАНИЯ ДЛЯ IPHONE","image":"https://sdb-storage.s3.us-east-2.amazonaws.com/user/1668322702980_iPhone-20W-Power-Adapter.jpg","slug":"iphone-usb-power-adapter","parent_id":15,"position":null,"views":163,"is_featured":0,"status":1,"priority":0,"children":[]}]},{"id":16,"name_uz":"Xotira kartalari","name_ru":"Карты памяти","image":null,"slug":"xotira-kartalari","parent_id":10,"position":null,"views":788,"is_featured":null,"status":1,"priority":0,"children":[]},{"id":17,"name_uz":"Speaker","name_ru":"Speaker","image":null,"slug":"speaker","parent_id":10,"position":null,"views":737,"is_featured":null,"status":1,"priority":0,"children":[]},{"id":18,"name_uz":"Selfie Stick","name_ru":"Selfie Stick","image":null,"slug":"selfie-stick","parent_id":10,"position":null,"views":796,"is_featured":null,"status":1,"priority":0,"children":[]}]}]},{"id":19,"name_uz":"Maishiy texnika","name_ru":"Бытовая техника","image":"https://api.sdb.uz/public/uploads/catImage_8xrXyR-2021-12-12T13-43-30.741Z.svg","slug":"maishiy texnika","parent_id":0,"position":null,"views":0,"is_featured":0,"status":1,"priority":0,"children":[{"id":20,"name_uz":"Maishiy texnikalar","name_ru":"Бытовая техника","image":null,"slug":"maishiy-texnikalar","parent_id":19,"position":null,"views":12,"is_featured":1,"status":1,"priority":0,"children":[{"id":21,"name_uz":"Kir yuvish mashinalari","name_ru":"Стиральные машины","image":null,"slug":"kir-yuvish-mashinalari","parent_id":20,"position":null,"views":550,"is_featured":null,"status":1,"priority":0,"children":[]},{"id":22,"name_uz":"Changyutgich va aksessuarlar","name_ru":"Пылесосы и аксессуары","image":null,"slug":"changyutgich-va-aksessuarlar","parent_id":20,"position":null,"views":429,"is_featured":null,"status":1,"priority":0,"children":[]},{"id":23,"name_uz":"Maishiy texnika aksessuarlari","name_ru":"Аксессуары для бытовой техники","image":null,"slug":"maishiy-texnika-aksessuarlari","parent_id":20,"position":null,"views":420,"is_featured":null,"status":1,"priority":0,"children":[]},{"id":24,"name_uz":"Dazmollar","name_ru":"Утюги","image":"","slug":"dazmollar","parent_id":20,"position":null,"views":448,"is_featured":null,"status":1,"priority":0,"children":[]},{"id":25,"name_uz":"Yorituvchi moslamalar","name_ru":"Интерьерное освещение","image":null,"slug":"yorituvchi-moslamalar","parent_id":20,"position":null,"views":453,"is_featured":null,"status":1,"priority":0,"children":[]},{"id":26,"name_uz":"Suvisitgichlar","name_ru":"Водонагреватели","image":null,"slug":"suvisitgichlar","parent_id":20,"position":null,"views":452,"is_featured":null,"status":1,"priority":0,"children":[]},{"id":27,"name_uz":"Tashqi sovutgich","name_ru":"Витринный холодильник","image":null,"slug":"tashqi-sovutgich","parent_id":20,"position":null,"views":446,"is_featured":null,"status":1,"priority":0,"children":[]}]},{"id":28,"name_uz":"Iqlim ta’minlovchi qurilmalar","name_ru":"Климатическая техника","image":null,"slug":"iqlim-taminlovchi-qurilmalar","parent_id":19,"position":null,"views":12,"is_featured":1,"status":1,"priority":0,"children":[{"id":29,"name_uz":"Konditsionerlar","name_ru":"Кондиционеры","image":null,"slug":"konditsionerlar","parent_id":28,"position":null,"views":503,"is_featured":null,"status":1,"priority":0,"children":[]},{"id":30,"name_uz":"Havoni namlantiruvchi qurilmalar","name_ru":"Увлажнители воздуха","image":null,"slug":"havoni-namlantiruvchi-qurilmalar","parent_id":28,"position":null,"views":462,"is_featured":null,"status":1,"priority":0,"children":[]},{"id":32,"name_uz":"Isitish qurilmalari va kaminlar","name_ru":"Обогреватели и камины","image":null,"slug":"isitish-qurilmalari-va-kaminlar","parent_id":28,"position":null,"views":408,"is_featured":null,"status":1,"priority":0,"children":[]},{"id":33,"name_uz":"Ventilyatorlar","name_ru":"Вентиляторы","image":null,"slug":"ventilyatorlar","parent_id":28,"position":null,"views":393,"is_featured":null,"status":1,"priority":0,"children":[]},{"id":34,"name_uz":"Havo tozalagichlar","name_ru":"Очистители воздуха","image":null,"slug":"havo-tozalagichlar","parent_id":28,"position":null,"views":386,"is_featured":null,"status":1,"priority":0,"children":[]},{"id":35,"name_uz":"Isitish-ventilyatori","name_ru":"Тепловентиляторы","image":null,"slug":"isitish-ventilyatori","parent_id":28,"position":null,"views":411,"is_featured":null,"status":1,"priority":0,"children":[]}]},{"id":36,"name_uz":"Tikuv uskunalari","name_ru":"Швейное оборудование","image":null,"slug":"tikuv-uskunalari","parent_id":19,"position":null,"views":12,"is_featured":1,"status":1,"priority":0,"children":[{"id":38,"name_uz":"Tikuv mashinalari","name_ru":"Швейные машинки","image":null,"slug":"tikuv-mashinalari","parent_id":36,"position":null,"views":378,"is_featured":null,"status":1,"priority":0,"children":[]},{"id":39,"name_uz":"Overlok","name_ru":"Оверлок","image":null,"slug":"overlok","parent_id":36,"position":null,"views":389,"is_featured":null,"status":1,"priority":0,"children":[]},{"id":40,"name_uz":"Chok mashinalari","name_ru":"Распошивальные машины","image":null,"slug":"chok-mashinalari","parent_id":36,"position":null,"views":372,"is_featured":null,"status":1,"priority":0,"children":[]}]},{"id":41,"name_uz":"Minimoyka","name_ru":"Минимойки","image":null,"slug":"minimoyka","parent_id":19,"position":null,"views":12,"is_featured":1,"status":1,"priority":0,"children":[{"id":42,"name_uz":"Parli dazmollar","name_ru":"Паровые утюги","image":null,"slug":"parli-dazmollar","parent_id":41,"position":null,"views":367,"is_featured":null,"status":1,"priority":0,"children":[]},{"id":43,"name_uz":"Suv bosimi nasoslari","name_ru":"Водяные напорные насосы","image":null,"slug":"suv-bosimi-nasoslari","parent_id":41,"position":null,"views":362,"is_featured":null,"status":1,"priority":0,"children":[]},{"id":44,"name_uz":"Partozalagich","name_ru":"Пароочистители","image":null,"slug":"partozalagich","parent_id":41,"position":null,"views":372,"is_featured":null,"status":1,"priority":0,"children":[]},{"id":45,"name_uz":"Changyutgichlar","name_ru":"Пароочистители","image":null,"slug":"changyutgichlar","parent_id":41,"position":null,"views":365,"is_featured":null,"status":1,"priority":0,"children":[]},{"id":46,"name_uz":"Yuqori bosim uskunalari","name_ru":"Аппараты высокого давления","image":null,"slug":"yuqori-bosim-uskunalari","parent_id":41,"position":null,"views":356,"is_featured":null,"status":1,"priority":0,"children":[]}]}]},{"id":47,"name_uz":"Televizor,Video va Audio","name_ru":"Телевизор, Видео, Аудио","image":"https://api.sdb.uz/public/uploads/catImage_z94uCg-2021-12-17T11-23-52.183Z.svg","slug":"yelevizor-video-audio","parent_id":0,"position":null,"views":0,"is_featured":0,"status":1,"priority":0,"children":[{"id":49,"name_uz":"Televizorlar va qurilamalar","name_ru":"Телевизоры и устройства","image":"","slug":"televizorlar-qurilmalar","parent_id":47,"position":null,"views":1,"is_featured":1,"status":1,"priority":0,"children":[{"id":50,"name_uz":"Televizorlar","name_ru":"Телевизоры","image":null,"slug":"televizorlar","parent_id":49,"position":null,"views":682,"is_featured":null,"status":1,"priority":0,"children":[]},{"id":51,"name_uz":"Smart TV pristavka","name_ru":"Smart TV приставка","image":"","slug":"smart-tv-pristavka","parent_id":49,"position":null,"views":549,"is_featured":null,"status":1,"priority":0,"children":[]},{"id":55,"name_uz":"TV tyunerlar","name_ru":"ТВ-тюнеры","image":"","slug":"tv-tyunerlar","parent_id":49,"position":null,"views":530,"is_featured":null,"status":1,"priority":0,"children":[]}]}]},{"id":56,"name_uz":"Kompyuterlar va orgtexnika","name_ru":"Компьютеры и оргтехника","image":"https://sdb-storage.s3.us-east-2.amazonaws.com/user/1649874101415_kompyuterlar.svg","slug":"kompyuterlar-va-orgtexnika","parent_id":0,"position":null,"views":0,"is_featured":0,"status":1,"priority":0,"children":[{"id":57,"name_uz":"Perifiriya qurilmalari","name_ru":"Периферийные устройства","image":null,"slug":"perifiriya-qurilmalari","parent_id":56,"position":null,"views":25,"is_featured":1,"status":1,"priority":0,"children":[{"id":66,"name_uz":"Monitorlar","name_ru":"Мониторы","image":null,"slug":"Monitorlar","parent_id":57,"position":null,"views":702,"is_featured":null,"status":1,"priority":0,"children":[]},{"id":69,"name_uz":"Klaviaturalar","name_ru":"Клавиатуры","image":null,"slug":"klaviaturalar","parent_id":57,"position":null,"views":577,"is_featured":null,"status":1,"priority":0,"children":[]},{"id":70,"name_uz":"Sichqonchalar","name_ru":"Мыши","image":null,"slug":"sichqonchalar","parent_id":57,"position":null,"views":639,"is_featured":null,"status":1,"priority":0,"children":[]},{"id":71,"name_uz":"Sichqoncha uchun gilamchalar","name_ru":"Коврики для мыши","image":null,"slug":"sichqoncha-uchun-gilamchalar","parent_id":57,"position":null,"views":582,"is_featured":null,"status":1,"priority":0,"children":[]},{"id":72,"name_uz":"Kompyuter uchun quloqchinlar","name_ru":"Наушники для компьютера","image":null,"slug":"kompyuter-uchun-quloqchinlar","parent_id":57,"position":null,"views":603,"is_featured":null,"status":1,"priority":0,"children":[]},{"id":73,"name_uz":"Veb-kamera","name_ru":"Веб-камера","image":null,"slug":"veb-kamera","parent_id":57,"position":null,"views":564,"is_featured":null,"status":1,"priority":0,"children":[]}]},{"id":58,"name_uz":"Kompyuterlar","name_ru":"Компьютерные продукты","image":null,"slug":"kompyuter-texnikasi","parent_id":56,"position":null,"views":25,"is_featured":1,"status":1,"priority":0,"children":[{"id":62,"name_uz":"Noutbuklar","name_ru":"Ноутбуки","image":null,"slug":"noutbuklar","parent_id":58,"position":null,"views":1469,"is_featured":null,"status":1,"priority":0,"children":[]},{"id":63,"name_uz":"Monoblok","name_ru":"Моноблок","image":null,"slug":"monoblok","parent_id":58,"position":null,"views":731,"is_featured":null,"status":1,"priority":0,"children":[]},{"id":64,"name_uz":"Stol usti kompyuterlari","name_ru":"Настольные компьютеры","image":null,"slug":"stol-usti-kompyuterlari","parent_id":58,"position":null,"views":737,"is_featured":null,"status":1,"priority":0,"children":[]}]},{"id":59,"name_uz":"Ofis qurilmalari","name_ru":"Оргтехника","image":null,"slug":"ofis-qurilmalari","parent_id":56,"position":null,"views":25,"is_featured":1,"status":1,"priority":0,"children":[{"id":87,"name_uz":"Printerlar va skanerlar","name_ru":"","image":null,"slug":"printerlar-va-skanerlar","parent_id":59,"position":null,"views":370,"is_featured":null,"status":1,"priority":0,"children":[]},{"id":88,"name_uz":"Kartridjlar","name_ru":"Картриджи","image":"","slug":"kartridjlar","parent_id":59,"position":null,"views":448,"is_featured":null,"status":1,"priority":0,"children":[]},{"id":89,"name_uz":"Siyohlar","name_ru":"Чернилы","image":null,"slug":"siyohlar","parent_id":59,"position":null,"views":405,"is_featured":null,"status":1,"priority":0,"children":[]},{"id":90,"name_uz":"Kassetalar","name_ru":"Кассеты","image":null,"slug":"kassetalar","parent_id":59,"position":null,"views":399,"is_featured":null,"status":1,"priority":0,"children":[]},{"id":91,"name_uz":"Printer uchun kogoz","name_ru":"Бумага для принтера","image":null,"slug":"printer-uchun-kogoz","parent_id":59,"position":null,"views":404,"is_featured":null,"status":1,"priority":0,"children":[]},{"id":92,"name_uz":"Chop etish boshi","name_ru":"Печатающая головка","image":null,"slug":"chop-etish-boshi","parent_id":59,"position":null,"views":400,"is_featured":null,"status":1,"priority":0,"children":[]},{"id":93,"name_uz":"Proyektorlar","name_ru":" Проекторы","image":null,"slug":"proyektorlar","parent_id":59,"position":null,"views":572,"is_featured":null,"status":1,"priority":0,"children":[]}]},{"id":67,"name_uz":"Komputer qurilmalari","name_ru":"Компьютерные устройства","image":"default.png","slug":"komputer-qurilmalari","parent_id":56,"position":null,"views":25,"is_featured":1,"status":1,"priority":0,"children":[{"id":75,"name_uz":"Protsessorlar","name_ru":"Процессоры","image":null,"slug":"protsessorlar","parent_id":67,"position":null,"views":502,"is_featured":null,"status":1,"priority":0,"children":[]},{"id":76,"name_uz":"Videokartalar","name_ru":"Видеокарты","image":null,"slug":"videokartalar","parent_id":67,"position":null,"views":498,"is_featured":null,"status":1,"priority":0,"children":[]},{"id":77,"name_uz":"Ona platalar","name_ru":"Материнские платы","image":null,"slug":"ona-platalar","parent_id":67,"position":null,"views":491,"is_featured":null,"status":1,"priority":0,"children":[]},{"id":78,"name_uz":"SSD","name_ru":"SSD","image":null,"slug":"ssd","parent_id":67,"position":null,"views":1049,"is_featured":null,"status":1,"priority":0,"children":[]},{"id":79,"name_uz":"HDD","name_ru":"HDD","image":null,"slug":"hdd","parent_id":67,"position":null,"views":685,"is_featured":null,"status":1,"priority":0,"children":[]},{"id":80,"name_uz":"Tashqi qattiq disklar","name_ru":"Внешние жесткие диски","image":null,"slug":"tashqi-qattiq-disklar","parent_id":67,"position":null,"views":511,"is_featured":null,"status":1,"priority":0,"children":[]},{"id":81,"name_uz":"Kuler - sovutish tizimlari","name_ru":"Кулеры - охлаждения для компьютеров","image":null,"slug":"kuler","parent_id":67,"position":null,"views":506,"is_featured":null,"status":1,"priority":0,"children":[]},{"id":82,"name_uz":"Operativ xotira","name_ru":"Оперативная память","image":null,"slug":"operativ-xotira","parent_id":67,"position":null,"views":813,"is_featured":null,"status":1,"priority":0,"children":[]},{"id":83,"name_uz":"Kompyuter korpuslari","name_ru":"Компьютерные корпуса","image":null,"slug":"kompyuter-korpuslari","parent_id":67,"position":null,"views":487,"is_featured":null,"status":1,"priority":0,"children":[]},{"id":84,"name_uz":"Flesh xotiralari","name_ru":"Флеш накопители","image":null,"slug":"flesh-xotiralari","parent_id":67,"position":null,"views":479,"is_featured":null,"status":1,"priority":0,"children":[]},{"id":85,"name_uz":" Quvvatlanish bloki","name_ru":" Блок питания","image":"default.png","slug":"quvvatlanish-bloki","parent_id":67,"position":null,"views":572,"is_featured":null,"status":1,"priority":0,"children":[]},{"id":107,"name_uz":"asd","name_ru":"asd","image":"https://sdb-storage.s3.us-east-2.amazonaws.com/user/1648825111224_%D0%91%D0%B5%D0%B7%20%D0%BD%D0%B0%D0%B7%D0%B2%D0%B0%D0%BD%D0%B8%D1%8F.png","slug":"asd","parent_id":67,"position":null,"views":473,"is_featured":0,"status":1,"priority":0,"children":[]}]}]}],"featuredBrands":[],"slides":[{"id":39,"title_uz":"baner6","title_ru":"baner6","slug":"baner6","url":"page/biz-ochildik","image":"https://sdb-storage.s3.us-east-2.amazonaws.com/user/1657475713669_imgonline-com-ua-Resize-gsiWgtujjDYzVBx.jpg","position":"lower"},{"id":37,"title_uz":"baner4","title_ru":"baner4","slug":"baner4","url":"page/biz-ochildik","image":"https://sdb-storage.s3.us-east-2.amazonaws.com/user/1657475567927_imgonline-com-ua-Resize-4y48zojsVQ8AvG.jpg","position":"lower"},{"id":36,"title_uz":"baner3","title_ru":"baner3","slug":"baner3","url":"page/biz-ochildik","image":"https://sdb-storage.s3.us-east-2.amazonaws.com/user/1657475508514_imgonline-com-ua-Resize-FY81uyfvqbXmc.jpg","position":"lower"},{"id":35,"title_uz":"baner2","title_ru":"baner3","slug":"baner2","url":"page/biz-ochildik","image":"https://sdb-storage.s3.us-east-2.amazonaws.com/user/1657475419345_imgonline-com-ua-Resize-DQNkfAUxNPtXfZLq.jpg","position":"hero"},{"id":34,"title_uz":"baner1","title_ru":"baner1","slug":"baner1","url":"page/biz-ochildik","image":"https://sdb-storage.s3.us-east-2.amazonaws.com/user/1657475237385_imgonline-com-ua-Resize-rhtkx82yCXnBDT.jpg","position":"hero"},{"id":22,"title_uz":"baner","title_ru":"baner","slug":"baner","url":"page/biz-ochildik","image":"https://sdb-storage.s3.us-east-2.amazonaws.com/user/1648122230751_1200-30%2B%2B%2B.jpg","position":"hero"}],"mostViewedProducts":[{"id":35,"product_id":null,"slug":"apple-iphone-13-pro-max-128gb","name_uz":"Apple iPhone 13 Pro Max 128GB","name_ru":"Apple iPhone 13 Pro Max 128GB","desc_short_ru":null,"desc_short_uz":null,"description_ru":"<p><span style=\"background-color: rgb(246, 249, 252); color: rgb(138, 138, 138);\">Новая сверхширокоугольная камера с обновлённым объективом и мощной системой автофокуса теперь может снимать на расстоянии всего 2 см от объекта. Самые мелкие детали будут выглядеть масштабно — узор листа, лапки насекомого или капля росы. iPhone 13 Pro создан для съёмки при слабом освещении. Широкоугольная камера с увеличенной диафрагмой и нашей самой большой матрицей использует возможности сканера LiDAR для портретов в Ночном режиме. У сверхшироко­угольной камеры с новым автофокусом диафрагма стала значительно больше, а матрица — быстрее. А у телефотокамеры появился Ночной режим.</span></p>","description_uz":"<p><span style=\"color: rgb(138, 138, 138); background-color: rgb(246, 249, 252);\">Yangilangan linzali va kuchli avtofokus tizimiga ega yangi ultra keng burchakli kamera endi obyektdan 2 sm gacha yaqinroqda suratga olishi mumkin. Eng kichik tafsilotlar katta ko'rinadi - barg naqshlari, hasharotlar panjalari yoki shudring tomchilari. iPhone 13 Pro kam yorug'likda suratga olish uchun ishlab chiqilgan. Bizning eng katta sensorimiz bo'lgan katta diafragmali keng burchakli kamera tungi rejimdagi portretlar uchun LiDAR skanerining kuchidan foydalanadi. Yangi avtofokusga ega ultra keng burchakli kamera sezilarli darajada katta diafragma va tezroq sensorga ega.</span></p>","quantity":10,"price":13680000,"is_recommended":1,"is_popular":0,"is_new":1,"is_stock":1,"is_discounted":0,"image":null,"images":["https://sdb-storage.s3.us-east-2.amazonaws.com/user/1649764012357_apple-iphone-13-pro-max-38534067185653.png","https://sdb-storage.s3.us-east-2.amazonaws.com/user/1649764015750_iphone-13-pro-blue-select-900x800.png","https://sdb-storage.s3.us-east-2.amazonaws.com/user/1649764022442_78649423783444.png","https://sdb-storage.s3.us-east-2.amazonaws.com/user/1649764025321_84378347-1200x1200.png"],"discount_type":null,"previous_price":0,"discount":0,"views":907,"order_count":null,"status":1,"created_at":"2022-04-12T06:47:13.000Z","updated_at":"2023-03-01T05:34:17.000Z","brand":{"id":4,"name_uz":"Apple","name_ru":"Apple"},"category":{"id":3,"name_uz":"Smartfonlar","name_ru":"Смартфоны"}},{"id":34,"product_id":null,"slug":"apple-iphone-13-pro-128gb","name_uz":"Apple iPhone 13 Pro 128GB","name_ru":"Apple iPhone 13 Pro 128GB","desc_short_ru":null,"desc_short_uz":null,"description_ru":"<p><span style=\"color: rgb(138, 138, 138);\">Новая сверхширокоугольная камера с обновлённым объективом и мощной системой автофокуса теперь может снимать на расстоянии всего 2 см от объекта. Самые мелкие детали будут выглядеть масштабно — узор листа, лапки насекомого или капля росы. iPhone 13 Pro создан для съёмки при слабом освещении. Широкоугольная камера с увеличенной диафрагмой и нашей самой большой матрицей использует возможности сканера LiDAR для портретов в Ночном режиме. У сверхшироко­угольной камеры с новым автофокусом диафрагма стала значительно больше, а матрица — быстрее. А у телефотокамеры появился Ночной режим.</span></p>","description_uz":"<p><span style=\"color: rgb(138, 138, 138);\">Yangilangan linzali va kuchli avtofokus tizimiga ega yangi ultra keng burchakli kamera endi obyektdan 2 sm gacha yaqinroqda suratga olishi mumkin. Eng kichik tafsilotlar katta ko'rinadi - barg naqshlari, hasharotlar panjalari yoki shudring tomchilari. iPhone 13 Pro kam yorug'likda suratga olish uchun ishlab chiqilgan. Bizning eng katta sensorimiz bo'lgan katta diafragmali keng burchakli kamera tungi rejimdagi portretlar uchun LiDAR skanerining kuchidan foydalanadi. Yangi avtofokusga ega ultra keng burchakli kamera sezilarli darajada katta diafragma va tezroq sensorga ega.</span></p>","quantity":10,"price":12940000,"is_recommended":1,"is_popular":0,"is_new":1,"is_stock":1,"is_discounted":0,"image":null,"images":["https://sdb-storage.s3.us-east-2.amazonaws.com/user/1649763153048_apple-iphone-13-pro-max-38534067185653.png","https://sdb-storage.s3.us-east-2.amazonaws.com/user/1649763217183_iphone-13-pro-blue-select-900x800.png","https://sdb-storage.s3.us-east-2.amazonaws.com/user/1649763221097_78649423783444.png","https://sdb-storage.s3.us-east-2.amazonaws.com/user/1649763227884_84378347-1200x1200.png"],"discount_type":null,"previous_price":0,"discount":0,"views":775,"order_count":null,"status":1,"created_at":"2022-04-12T06:36:05.000Z","updated_at":"2023-03-01T06:49:54.000Z","brand":{"id":4,"name_uz":"Apple","name_ru":"Apple"},"category":{"id":3,"name_uz":"Smartfonlar","name_ru":"Смартфоны"}},{"id":74,"product_id":null,"slug":"apple-iphone-11-4128-gb","name_uz":"Apple iPhone 11","name_ru":"Apple iPhone 11","desc_short_ru":null,"desc_short_uz":null,"description_ru":"<p><span style=\"color: rgb(51, 51, 51);\">Гарантийный срок (месяц): 1</span></p>","description_uz":"<p><span style=\"color: rgb(51, 51, 51);\">Kafolat muddati (oy): 1</span></p>","quantity":7,"price":6160000,"is_recommended":0,"is_popular":0,"is_new":1,"is_stock":1,"is_discounted":0,"image":null,"images":["https://sdb-storage.s3.us-east-2.amazonaws.com/user/1662788624096_$_57.jpg","https://sdb-storage.s3.us-east-2.amazonaws.com/user/1662788803346_iphone-11-black.jpg","https://sdb-storage.s3.us-east-2.amazonaws.com/user/1662788806188_30995.750x0.jpg"],"discount_type":null,"previous_price":0,"discount":0,"views":736,"order_count":null,"status":1,"created_at":"2022-09-10T00:55:31.000Z","updated_at":"2023-03-01T06:47:01.000Z","brand":{"id":4,"name_uz":"Apple","name_ru":"Apple"},"category":{"id":3,"name_uz":"Smartfonlar","name_ru":"Смартфоны"}},{"id":33,"product_id":null,"slug":"apple-iphone-13-128gb","name_uz":"Apple Iphone 13 128GB","name_ru":"Apple Iphone 13 128GB","desc_short_ru":null,"desc_short_uz":null,"description_ru":"<p><span style=\"color: rgb(138, 138, 138);\">Дисплей OLED стал на 28% ярче — до 800 кд/﻿м². На нём всё хорошо видно даже в самый солнечный день. А яркость при просмотре контента в HDR достигает 1200 кд/﻿м². Вы сможете различить мельчайшие оттенки чёрного и белого — как и всех остальных цветов. При этом дисплей расходует заряд аккумулятора ещё более экономно, чем прежде. Ночной режим автоматически регулирует параметры съёмки. Даже при слабом освещении получаются яркие, чёткие фотографии с невероятно насыщенными цветами.</span></p>","description_uz":"<p><span style=\"color: rgb(138, 138, 138);\">OLED displey 28% yorqinroq bo'ldi - 800 CD/m² gacha. Unda hamma narsa eng quyoshli kunda ham aniq ko'rinadi. Va HDR-da kontentni ko'rishda yorqinlik 1200 cd/m² ga yetadi. Siz qora va oqning eng kichik soyalarini, shuningdek, boshqa barcha ranglarni ajrata olasiz. Shu bilan birga, displey batareya quvvatini avvalgidan ham tejamkorroq sarflaydi. Tungi rejim tortishish sozlamalarini avtomatik ravishda sozlaydi. Kam yorug'likda ham ajoyib boy ranglarga ega yorqin va tiniq fotosuratlarga ega bo'lasiz.</span></p>","quantity":10,"price":9450000,"is_recommended":1,"is_popular":0,"is_new":1,"is_stock":1,"is_discounted":0,"image":null,"images":["https://sdb-storage.s3.us-east-2.amazonaws.com/user/1649762481912_13.jpg","https://sdb-storage.s3.us-east-2.amazonaws.com/user/1649762624751_rvnt823s0w304tpxr2uziho10n1ln58l (1).jpg","https://sdb-storage.s3.us-east-2.amazonaws.com/user/1649762627156_smartfon_apple_iphone_13_256gb_siniy_619-600x600.jpg","https://sdb-storage.s3.us-east-2.amazonaws.com/user/1649762632074_iPhone_13_Pink (1).jpg","https://sdb-storage.s3.us-east-2.amazonaws.com/user/1649762637577_30059044bb(1)-555x777.jpg"],"discount_type":null,"previous_price":0,"discount":0,"views":604,"order_count":null,"status":1,"created_at":"2022-04-12T06:21:26.000Z","updated_at":"2023-02-28T11:47:39.000Z","brand":{"id":4,"name_uz":"Apple","name_ru":"Apple"},"category":{"id":3,"name_uz":"Smartfonlar","name_ru":"Смартфоны"}},{"id":99,"product_id":null,"slug":"samsung-galaxy-s22-ultra-5g-1-256-8-","name_uz":"Samsung Galaxy S22 Ultra 5G 1 (нано-сим) 256 ГБ 8 ГБ","name_ru":"Samsung Galaxy S22 Ultra 5G 1 (нано-сим) 256 ГБ 8 ГБ","desc_short_ru":null,"desc_short_uz":null,"description_ru":"<p>Гарантийный срок (месяц): 12</p><p>Samsung Galaxy S22 Ultra 5G смартфон 2022 года выпуска. Его размеры 163.3 x 77.9 x 8.9 и вес 228 г. Он оснащен Dynamic AMOLED 2X-дисплеем с размером 6.8\" дюйма. Разрешение составляет 1440 x 3080 пикселей, плотность пикселей 500 ppi. Для селфи и видеозвонков отвечает Одна предна камера с 40 MP. Для базовых фото и видео доступная Четверная задняя камера 108 MP</p>","description_uz":"<p>Kafolat muddati (oy): 12</p><p>Samsung Galaxy S22 Ultra 5G smartfonining 2022-yilda chiqarildi. Uning o‘lchamlari 163.3x77.9x8.9 va og‘irligi 228 gramm. U 6.8 dyuymli Dynamic AMOLED 2X displeyga ega. Uning o‘lchamlari 1440x3080 piksel va piksel zichligi 500 ppi. Selfi va videoqo‘ng‘iroqlar uchun bitta old kamera, 40 MP. mas'ul. asosiy foto va video mavjud 108 MP to'rtburchak orqa kamera.</p>","quantity":1,"price":10950000,"is_recommended":0,"is_popular":0,"is_new":1,"is_stock":1,"is_discounted":0,"image":null,"images":["https://sdb-storage.s3.us-east-2.amazonaws.com/user/1663734758109_1_554744.jpg","https://sdb-storage.s3.us-east-2.amazonaws.com/user/1663850841206_samsung_galaxy_s22_ultra_vyjdet_v_versii_s_1_tb_pamati_no_ne_vezde_picture5_0.jpg"],"discount_type":null,"previous_price":11325000,"discount":0,"views":493,"order_count":null,"status":1,"created_at":"2022-09-20T23:41:17.000Z","updated_at":"2023-02-28T23:56:55.000Z","brand":{"id":5,"name_uz":"Samsung","name_ru":"Samsung"},"category":{"id":3,"name_uz":"Smartfonlar","name_ru":"Смартфоны"}},{"id":22,"product_id":null,"slug":"-xiaomi-redmi-note-11-6gb128gb-","name_uz":"Смартфон Xiaomi Redmi Note 11 6 GB 128GB Графитово-серый","name_ru":"Смартфон Xiaomi Redmi Note 11 6 GB 128GB Графитово-серый","desc_short_ru":null,"desc_short_uz":null,"description_ru":"<p><span style=\"color: rgb(138, 138, 138);\">Смартфоны Redmi Note от Xiaomi в особой презентации не нуждаются. Аппараты линейки не раз становились бестселлерами за счет хорошего соотношения цены и качества. Сегодня смотрим на Redmi Note 11.Совершенно новый дизайн гаджета отличается плоской рамкой и минималистичным стилем. Смартфон Редми Ноут 11 оснащен AMOLED-дисплеем с разрешением FullHD+ и частотой обновления экрана 90 Гц. Пиковая яркость достигает 1000 нит.</span></p>","description_uz":"<p><span style=\"color: rgb(138, 138, 138);\">Xiaomi kompaniyasining Redmi Note smartfonlari maxsus taqdimotga muhtoj emas. Chiziqning qurilmalari pul uchun yaxshi qiymat tufayli bir necha marta eng ko'p sotilgan bo'ldi. Bugun biz Redmi Note 11 ni ko'rib chiqamiz. Gadjetning yangi dizayni tekis ramka va minimalist uslubga ega. Redmi Note 11 90 Gts yangilanish tezligiga ega FullHD+ AMOLED displeyga ega. Eng yuqori yorqinligi 1000 nitsga etadi.</span></p>","quantity":10,"price":2390000,"is_recommended":1,"is_popular":0,"is_new":1,"is_stock":1,"is_discounted":0,"image":null,"images":["https://sdb-storage.s3.us-east-2.amazonaws.com/user/1648807930707_Q25xwR9W7nPpnHwKTdWcPs0yHQPLLG9u1z6P5Z88f8RePUN8hUCJbkQo7ipz.jpeg","https://sdb-storage.s3.us-east-2.amazonaws.com/user/1648807932831_aVa70CMtjbefJ6u8HfJ8ccPeNeBvIEHQNvlPFC1VrIiCeh0cHtZekXyV5J89.png"],"discount_type":null,"previous_price":0,"discount":0,"views":481,"order_count":null,"status":1,"created_at":"2022-04-01T05:12:16.000Z","updated_at":"2023-02-28T22:37:29.000Z","brand":{"id":6,"name_uz":null,"name_ru":null},"category":{"id":3,"name_uz":"Smartfonlar","name_ru":"Смартфоны"}},{"id":100,"product_id":null,"slug":"iphone-14-pro-128gb-deep-purple","name_uz":"iPhone 14 Pro 128GB Deep Purple","name_ru":"iPhone 14 Pro 128GB Deep Purple","desc_short_ru":null,"desc_short_uz":null,"description_ru":"<p>Гарантийный срок (месяц): 12</p><p>Разработан для долговечности. С керамическим экраном, более прочным, чем любое стекло смартфона. Водонепроницаемость. Нержавеющая сталь хирургического класса. Диагональ экрана 6,1″ и 6,7″. Все в четырех цветах Pro. Представляем Dynamic Island, настоящую инновацию Apple, которая включает в себя аппаратное и программное обеспечение, а также что-то среднее между ними. Он включает музыку, FaceTime и многое другое — и все это не отвлекает вас от того, чем вы занимаетесь</p>","description_uz":"<p>Kafolat muddati (oy): 12</p><p>Chidamlilik uchun mo'ljallangan. Keramika ekrani bilan har qanday smartfon oynasidan ham bardoshli. Suv o'tkazmaydigan; suvga chidamli. Jarrohlik darajasidagi zanglamaydigan po'lat. Ekran o'lchami 6,1 dyuym va 6,7 ​​dyuym. Hammasi to'rtta Pro rangda. Apparat, dasturiy ta'minot va ularning orasidagi barcha narsalarni o'z ichiga olgan haqiqiy Apple innovatsiyasi bo'lgan Dynamic Island bilan tanishing. U musiqa, FaceTime va boshqalarni o‘z ichiga oladi — barchasi sizni qilayotgan ishingizdan chalg‘itmaydi</p>","quantity":3,"price":15850000,"is_recommended":0,"is_popular":0,"is_new":1,"is_stock":1,"is_discounted":0,"image":null,"images":["https://sdb-storage.s3.us-east-2.amazonaws.com/user/1663821127202_400024626b.webp","https://sdb-storage.s3.us-east-2.amazonaws.com/user/1663849378694_iphone_12_PNG36.png","https://sdb-storage.s3.us-east-2.amazonaws.com/user/1663849388550_iPhone_14_Pro_Deep_Purple_PDP_Image_Position-2__WWEN.jpg"],"discount_type":null,"previous_price":0,"discount":0,"views":473,"order_count":null,"status":1,"created_at":"2022-09-21T23:35:13.000Z","updated_at":"2023-03-01T05:12:17.000Z","brand":{"id":4,"name_uz":"Apple","name_ru":"Apple"},"category":{"id":3,"name_uz":"Smartfonlar","name_ru":"Смартфоны"}},{"id":113,"product_id":null,"slug":"apple-iphone-14-pro-256gb","name_uz":"Apple iPhone 14 Pro Мах 256GB","name_ru":"Apple iPhone 14 Pro Мах 256GB","desc_short_ru":null,"desc_short_uz":null,"description_ru":"<p><br></p><p>Гарантийный срок (месяц): 12</p><p>Разработан для долговечности. С керамическим экраном, более прочным, чем любое стекло смартфона. Водонепроницаемость. Нержавеющая сталь хирургического класса. Диагональ экрана 6,1″ и 6,7″. Все в четырех цветах Pro. Представляем Dynamic Island, настоящую инновацию Apple, которая включает в себя аппаратное и программное обеспечение, а также что-то среднее между ними. Он включает музыку, FaceTime и многое другое — и все это не отвлекает вас от того, чем вы занимаетесь</p>","description_uz":"<ul><li><br></li></ul><p><br></p><p>Kafolat muddati (oy): 12</p><p>Chidamlilik uchun mo'ljallangan. Keramika ekrani bilan har qanday smartfon oynasidan ham bardoshli. Suv o'tkazmaydigan; suvga chidamli. Jarrohlik darajasidagi zanglamaydigan po'lat. Ekran o'lchami 6,1 dyuym va 6,7 ​​dyuym. Hammasi to'rtta Pro rangda. Apparat, dasturiy ta'minot va ularning orasidagi barcha narsalarni o'z ichiga olgan haqiqiy Apple innovatsiyasi bo'lgan Dynamic Island bilan tanishing. U musiqa, FaceTime va boshqalarni o‘z ichiga oladi — barchasi sizni qilayotgan ishingizdan chalg‘itmaydi.</p>","quantity":4,"price":19100000,"is_recommended":0,"is_popular":0,"is_new":1,"is_stock":1,"is_discounted":0,"image":null,"images":["https://sdb-storage.s3.us-east-2.amazonaws.com/user/1664432053557_a684eceee76fc522773286a895bc843620220921144501536454LlVuuGzES.png","https://sdb-storage.s3.us-east-2.amazonaws.com/user/1664432058926_b53b3a3d6ab90ce0268229151c9bde1120220921144502881413E6gUYvOqo.png"],"discount_type":null,"previous_price":0,"discount":0,"views":429,"order_count":null,"status":1,"created_at":"2022-09-29T01:20:59.000Z","updated_at":"2023-03-01T04:10:58.000Z","brand":{"id":4,"name_uz":"Apple","name_ru":"Apple"},"category":{"id":3,"name_uz":"Smartfonlar","name_ru":"Смартфоны"}},{"id":13,"product_id":null,"slug":"samsung-galaxy-a52-4128gb-lavender","name_uz":"Samsung Galaxy A52 4/128GB Lavender","name_ru":"Samsung Galaxy A52 4/128GB Lavender","desc_short_ru":null,"desc_short_uz":null,"description_ru":"<p><span style=\"color: rgb(138, 138, 138);\">Насладитесь детальным изображением на Super AMOLED 6,5'' Infinity-O экране с разрешением FHD+ и яркостью до 800 нит, которое отлично видно даже при ярком дневном свете. Функция защиты глаз \"Eye Comfort Shield\"² снижает уровень синего свечения, а сверхплавная прокрутка обеспечивает комфортный просмотр во время игрового сеанса или скроллинга изображения на экране. Четыре AI камеры Galaxy A52 поднимают уровень качества фото на новую высоту.</span></p>","description_uz":"<p><span style=\"color: rgb(138, 138, 138);\">Super AMOLED 6,5 dyuymli Infinity-O ekranida FHD+ piksellar soniga va 800 nitgacha yorqinlikka ega bo‘lgan batafsil tasvirlardan bahramand bo‘ling, bu yorug‘ kunduzda ham mukammal ko‘rinadi. \"Eye Comfort Shield\"² ko'k yorug'lik chiqarishni kamaytiradi, o'ta silliq aylantirish esa o'yin o'ynash yoki ekranda aylanayotganda qulay ko'rish tajribasini ta'minlaydi. Galaxy A52 ning to‘rtta AI kamerasi surat sifatini yangi cho‘qqilarga olib chiqadi.</span></p>","quantity":10,"price":3130000,"is_recommended":1,"is_popular":0,"is_new":1,"is_stock":1,"is_discounted":0,"image":null,"images":["https://sdb-storage.s3.us-east-2.amazonaws.com/user/1648201926275_a32.jpeg","https://sdb-storage.s3.us-east-2.amazonaws.com/user/1648201935253_aa32.jpeg","https://sdb-storage.s3.us-east-2.amazonaws.com/user/1648201938357_aaa32.jpeg"],"discount_type":null,"previous_price":0,"discount":0,"views":404,"order_count":null,"status":1,"created_at":"2022-03-25T04:53:41.000Z","updated_at":"2023-02-28T16:02:24.000Z","brand":{"id":5,"name_uz":"Samsung","name_ru":"Samsung"},"category":{"id":3,"name_uz":"Smartfonlar","name_ru":"Смартфоны"}}],"smartphones":[{"id":113,"product_id":null,"slug":"apple-iphone-14-pro-256gb","name_uz":"Apple iPhone 14 Pro Мах 256GB","name_ru":"Apple iPhone 14 Pro Мах 256GB","desc_short_ru":null,"desc_short_uz":null,"description_ru":"<p><br></p><p>Гарантийный срок (месяц): 12</p><p>Разработан для долговечности. С керамическим экраном, более прочным, чем любое стекло смартфона. Водонепроницаемость. Нержавеющая сталь хирургического класса. Диагональ экрана 6,1″ и 6,7″. Все в четырех цветах Pro. Представляем Dynamic Island, настоящую инновацию Apple, которая включает в себя аппаратное и программное обеспечение, а также что-то среднее между ними. Он включает музыку, FaceTime и многое другое — и все это не отвлекает вас от того, чем вы занимаетесь</p>","description_uz":"<ul><li><br></li></ul><p><br></p><p>Kafolat muddati (oy): 12</p><p>Chidamlilik uchun mo'ljallangan. Keramika ekrani bilan har qanday smartfon oynasidan ham bardoshli. Suv o'tkazmaydigan; suvga chidamli. Jarrohlik darajasidagi zanglamaydigan po'lat. Ekran o'lchami 6,1 dyuym va 6,7 ​​dyuym. Hammasi to'rtta Pro rangda. Apparat, dasturiy ta'minot va ularning orasidagi barcha narsalarni o'z ichiga olgan haqiqiy Apple innovatsiyasi bo'lgan Dynamic Island bilan tanishing. U musiqa, FaceTime va boshqalarni o‘z ichiga oladi — barchasi sizni qilayotgan ishingizdan chalg‘itmaydi.</p>","quantity":4,"price":19100000,"is_recommended":0,"is_popular":0,"is_new":1,"is_stock":1,"is_discounted":0,"image":null,"images":["https://sdb-storage.s3.us-east-2.amazonaws.com/user/1664432053557_a684eceee76fc522773286a895bc843620220921144501536454LlVuuGzES.png","https://sdb-storage.s3.us-east-2.amazonaws.com/user/1664432058926_b53b3a3d6ab90ce0268229151c9bde1120220921144502881413E6gUYvOqo.png"],"discount_type":null,"previous_price":0,"discount":0,"views":429,"order_count":null,"status":1,"created_at":"2022-09-29T01:20:59.000Z","updated_at":"2023-03-01T04:10:58.000Z","brand":{"id":4,"name_uz":"Apple","name_ru":"Apple"},"category":{"id":3,"name_uz":"Smartfonlar","name_ru":"Смартфоны"}},{"id":100,"product_id":null,"slug":"iphone-14-pro-128gb-deep-purple","name_uz":"iPhone 14 Pro 128GB Deep Purple","name_ru":"iPhone 14 Pro 128GB Deep Purple","desc_short_ru":null,"desc_short_uz":null,"description_ru":"<p>Гарантийный срок (месяц): 12</p><p>Разработан для долговечности. С керамическим экраном, более прочным, чем любое стекло смартфона. Водонепроницаемость. Нержавеющая сталь хирургического класса. Диагональ экрана 6,1″ и 6,7″. Все в четырех цветах Pro. Представляем Dynamic Island, настоящую инновацию Apple, которая включает в себя аппаратное и программное обеспечение, а также что-то среднее между ними. Он включает музыку, FaceTime и многое другое — и все это не отвлекает вас от того, чем вы занимаетесь</p>","description_uz":"<p>Kafolat muddati (oy): 12</p><p>Chidamlilik uchun mo'ljallangan. Keramika ekrani bilan har qanday smartfon oynasidan ham bardoshli. Suv o'tkazmaydigan; suvga chidamli. Jarrohlik darajasidagi zanglamaydigan po'lat. Ekran o'lchami 6,1 dyuym va 6,7 ​​dyuym. Hammasi to'rtta Pro rangda. Apparat, dasturiy ta'minot va ularning orasidagi barcha narsalarni o'z ichiga olgan haqiqiy Apple innovatsiyasi bo'lgan Dynamic Island bilan tanishing. U musiqa, FaceTime va boshqalarni o‘z ichiga oladi — barchasi sizni qilayotgan ishingizdan chalg‘itmaydi</p>","quantity":3,"price":15850000,"is_recommended":0,"is_popular":0,"is_new":1,"is_stock":1,"is_discounted":0,"image":null,"images":["https://sdb-storage.s3.us-east-2.amazonaws.com/user/1663821127202_400024626b.webp","https://sdb-storage.s3.us-east-2.amazonaws.com/user/1663849378694_iphone_12_PNG36.png","https://sdb-storage.s3.us-east-2.amazonaws.com/user/1663849388550_iPhone_14_Pro_Deep_Purple_PDP_Image_Position-2__WWEN.jpg"],"discount_type":null,"previous_price":0,"discount":0,"views":473,"order_count":null,"status":1,"created_at":"2022-09-21T23:35:13.000Z","updated_at":"2023-03-01T05:12:17.000Z","brand":{"id":4,"name_uz":"Apple","name_ru":"Apple"},"category":{"id":3,"name_uz":"Smartfonlar","name_ru":"Смартфоны"}},{"id":99,"product_id":null,"slug":"samsung-galaxy-s22-ultra-5g-1-256-8-","name_uz":"Samsung Galaxy S22 Ultra 5G 1 (нано-сим) 256 ГБ 8 ГБ","name_ru":"Samsung Galaxy S22 Ultra 5G 1 (нано-сим) 256 ГБ 8 ГБ","desc_short_ru":null,"desc_short_uz":null,"description_ru":"<p>Гарантийный срок (месяц): 12</p><p>Samsung Galaxy S22 Ultra 5G смартфон 2022 года выпуска. Его размеры 163.3 x 77.9 x 8.9 и вес 228 г. Он оснащен Dynamic AMOLED 2X-дисплеем с размером 6.8\" дюйма. Разрешение составляет 1440 x 3080 пикселей, плотность пикселей 500 ppi. Для селфи и видеозвонков отвечает Одна предна камера с 40 MP. Для базовых фото и видео доступная Четверная задняя камера 108 MP</p>","description_uz":"<p>Kafolat muddati (oy): 12</p><p>Samsung Galaxy S22 Ultra 5G smartfonining 2022-yilda chiqarildi. Uning o‘lchamlari 163.3x77.9x8.9 va og‘irligi 228 gramm. U 6.8 dyuymli Dynamic AMOLED 2X displeyga ega. Uning o‘lchamlari 1440x3080 piksel va piksel zichligi 500 ppi. Selfi va videoqo‘ng‘iroqlar uchun bitta old kamera, 40 MP. mas'ul. asosiy foto va video mavjud 108 MP to'rtburchak orqa kamera.</p>","quantity":1,"price":10950000,"is_recommended":0,"is_popular":0,"is_new":1,"is_stock":1,"is_discounted":0,"image":null,"images":["https://sdb-storage.s3.us-east-2.amazonaws.com/user/1663734758109_1_554744.jpg","https://sdb-storage.s3.us-east-2.amazonaws.com/user/1663850841206_samsung_galaxy_s22_ultra_vyjdet_v_versii_s_1_tb_pamati_no_ne_vezde_picture5_0.jpg"],"discount_type":null,"previous_price":11325000,"discount":0,"views":493,"order_count":null,"status":1,"created_at":"2022-09-20T23:41:17.000Z","updated_at":"2023-02-28T23:56:55.000Z","brand":{"id":5,"name_uz":"Samsung","name_ru":"Samsung"},"category":{"id":3,"name_uz":"Smartfonlar","name_ru":"Смартфоны"}},{"id":79,"product_id":null,"slug":"xiaomi-poco-f3-6128gb","name_uz":"Xiaomi Poco F3 6/128GB ","name_ru":"Xiaomi Poco F3 6/128GB ","desc_short_ru":null,"desc_short_uz":null,"description_ru":"<p><span class=\"ql-cursor\">﻿</span>Гарантийный срок (месяц): 12</p><p>Крупнейший онлайн-магазин, где представлены тысячи модели товаров с подробными описаниями, фотографиями и характеристиками. На сайте продается огромное количество разнообразных товаров: книги, игрушки, электроника, одежда, аксессуары и многое другое, которые отличаются качеством и низкой стоимостью. С нами вы получите свою доставку намного быстрее. К тому же, мы позаботимся обо всех деталях пересылки и покупки и просто привезем вашу покупку к вам домой.</p>","description_uz":"<p>Kafolat muddati (oy): 12</p><p>Batafsil tavsiflari, fotosuratlari va texnik xususiyatlari bilan minglab mahsulot modellari bo'lgan eng yirik onlayn-do'kon. Saytda juda ko'p turli xil tovarlar sotiladi: kitoblar, o'yinchoqlar, elektronika, kiyim-kechak, aksessuarlar va boshqalar, ular yuqori sifatli va arzon. Biz bilan siz yetkazib berishni tezroq qabul qilasiz. Bundan tashqari, biz etkazib berish va sotib olishning barcha tafsilotlari bilan shug'ullanamiz va xaridingizni uyingizga olib boramiz.</p>","quantity":6,"price":3441000,"is_recommended":0,"is_popular":0,"is_new":1,"is_stock":1,"is_discounted":0,"image":null,"images":["https://sdb-storage.s3.us-east-2.amazonaws.com/user/1662793058281_14d9fa802e0bf54e41e1e9b6e05f6.jpg","https://sdb-storage.s3.us-east-2.amazonaws.com/user/1662793061459_raw.jpg","https://sdb-storage.s3.us-east-2.amazonaws.com/user/1662793546336_POCO-F3-3-3_large.jpeg","https://sdb-storage.s3.us-east-2.amazonaws.com/user/1662878302193_0001645_apple-watch-series-4-gps-cellular.png"],"discount_type":null,"previous_price":0,"discount":0,"views":320,"order_count":null,"status":1,"created_at":"2022-09-10T02:02:37.000Z","updated_at":"2023-03-01T02:21:57.000Z","brand":{"id":6,"name_uz":null,"name_ru":null},"category":{"id":3,"name_uz":"Smartfonlar","name_ru":"Смартфоны"}},{"id":78,"product_id":null,"slug":"xiaomi-poco-x4-pro-8256gb","name_uz":"Xiaomi Poco X4 Pro 8/256GB","name_ru":"Xiaomi Poco X4 Pro 8/256GB","desc_short_ru":null,"desc_short_uz":null,"description_ru":"<p>Гарантийный срок (месяц): 12</p><p>В серии POCO X теперь используется дисплей AMOLED и поддерживается цветовой охват DCI-P3. Расширенное цветовое пространство для более сочной картинки и кинематографического эффекта. Диафрагма фронтальной камеры составляет 2,96 мм, что расширяет поле зрения. Чем бы вы ни занимались: просмотром веб-страниц или играми, высокая частота обновления 120 Гц обеспечит беспрецедентное качество.</p>","description_uz":"<p>Kafolat muddati (oy): 12</p><p>POCO X seriyasi endi AMOLED displeydan foydalanadi va DCI-P3 rang gamutini qo‘llab-quvvatlaydi. Boyroq tasvir va kino effekti uchun kengaytirilgan rang maydoni. Old kamera diafragma 2,96 mm ni tashkil etadi, bu ko'rish maydonini kengaytiradi. Internetni ko'rayotganingizda yoki o'yin o'ynayapsizmi, 120 Gts yuqori yangilanish tezligi misli ko'rilmagan sifatni ta'minlaydi.</p>","quantity":5,"price":3620000,"is_recommended":0,"is_popular":0,"is_new":1,"is_stock":1,"is_discounted":0,"image":null,"images":["https://sdb-storage.s3.us-east-2.amazonaws.com/user/1662792652424_هاتف-Poco-X4-Pro-5G-للمراجعة.jpg"],"discount_type":null,"previous_price":0,"discount":0,"views":288,"order_count":null,"status":1,"created_at":"2022-09-10T01:52:53.000Z","updated_at":"2023-03-01T02:03:59.000Z","brand":{"id":6,"name_uz":null,"name_ru":null},"category":{"id":3,"name_uz":"Smartfonlar","name_ru":"Смартфоны"}},{"id":77,"product_id":null,"slug":"apple-iphone-12-pro-max-6128-gb","name_uz":"Apple iPhone 12 Pro Max 6/128 GB","name_ru":"Apple iPhone 12 Pro Max ","desc_short_ru":null,"desc_short_uz":null,"description_ru":"<p>Гарантийный срок (месяц): 1</p><p>iPhone 12-го поколения в размере «Plus Size», выделяющийся на фоне сородичей по продуктовой линейке увеличенными размерами экрана — 6.7 дюймов по диагонали. Набор спецификаций модели включает топовую OLED-матрицу Super Retina XDR с разрешающей способностью 2778x1284 пикселей и характерной «монобровью», мощнейший из мобильных чипсетов — шестиядерный Apple A14.</p>","description_uz":"<p>Kafolat muddati (oy): 1</p><p>\"Plus Size\" o'lchamidagi 12-avlod iPhone, diagonal bo'yicha 6,7 ​​dyuymli kattalashtirilgan ekran o'lchami bilan mahsulot qatoridagi qarindoshlar fonida ajralib turadi. Modelning texnik xususiyatlari to'plamiga 2778x1284 piksel o'lchamli yuqori darajadagi Super Retina XDR OLED matritsasi va xarakterli \"monobrow\" kiradi, eng kuchli mobil chipset olti yadroli Apple A14 hisoblanadi.</p>","quantity":6,"price":11665000,"is_recommended":0,"is_popular":0,"is_new":1,"is_stock":1,"is_discounted":0,"image":null,"images":["https://sdb-storage.s3.us-east-2.amazonaws.com/user/1662791065139_115_full1200x792.png.crdownload","https://sdb-storage.s3.us-east-2.amazonaws.com/user/1662791081328_iphone_12_PNG36.png"],"discount_type":null,"previous_price":0,"discount":0,"views":294,"order_count":null,"status":1,"created_at":"2022-09-10T01:28:01.000Z","updated_at":"2023-03-01T03:19:04.000Z","brand":{"id":4,"name_uz":"Apple","name_ru":"Apple"},"category":{"id":3,"name_uz":"Smartfonlar","name_ru":"Смартфоны"}},{"id":76,"product_id":null,"slug":"apple-iphone-12-pro-6256-mb","name_uz":"Apple iPhone 12 Pro 6/256 MB","name_ru":"Apple iPhone 12 Pro 6/256 MB","desc_short_ru":null,"desc_short_uz":null,"description_ru":"<p>Гарантийный срок (месяц): 12</p><p>Крупнейший онлайн-магазин, где представлены тысячи модели товаров с подробными описаниями, фотографиями и характеристиками. На сайте продается огромное количество разнообразных товаров: книги, игрушки, электроника, одежда, аксессуары и многое другое, которые отличаются качеством и низкой стоимостью. С нами вы получите свою доставку намного быстрее. К тому же, мы позаботимся обо всех деталях пересылки и покупки и просто привезем вашу покупку к вам домой.</p>","description_uz":"<p>Kafolat muddati (oy): 12</p><p>Batafsil tavsiflari, fotosuratlari va texnik xususiyatlari bilan minglab mahsulot modellari bo'lgan eng yirik onlayn-do'kon. Saytda juda ko'p turli xil tovarlar sotiladi: kitoblar, o'yinchoqlar, elektronika, kiyim-kechak, aksessuarlar va boshqalar, ular yuqori sifatli va arzon. Biz bilan siz yetkazib berishni tezroq qabul qilasiz. Bundan tashqari, biz etkazib berish va sotib olishning barcha tafsilotlari bilan shug'ullanamiz va xaridingizni uyingizga olib boramiz.</p>","quantity":5,"price":10656000,"is_recommended":0,"is_popular":0,"is_new":1,"is_stock":1,"is_discounted":0,"image":null,"images":["https://sdb-storage.s3.us-east-2.amazonaws.com/user/1662791839532_apple_iphone_12_pro_512gb_4.jpg"],"discount_type":null,"previous_price":0,"discount":0,"views":325,"order_count":null,"status":1,"created_at":"2022-09-10T01:12:31.000Z","updated_at":"2023-02-28T15:43:17.000Z","brand":{"id":4,"name_uz":"Apple","name_ru":"Apple"},"category":{"id":3,"name_uz":"Smartfonlar","name_ru":"Смартфоны"}},{"id":75,"product_id":null,"slug":"apple-iphone-12-4128gb","name_uz":"Apple iPhone 12  4/128GB","name_ru":"Apple iPhone 12  4/128GB","desc_short_ru":null,"desc_short_uz":null,"description_ru":"<p>Гарантийный срок (месяц): 12</p><p>Крупнейший онлайн-магазин, где представлены тысячи модели товаров с подробными описаниями, фотографиями и характеристиками. На сайте продается огромное количество разнообразных товаров: книги, игрушки, электроника, одежда, аксессуары и многое другое, которые отличаются качеством и низкой стоимостью. С нами вы получите свою доставку намного быстрее. К тому же, мы позаботимся обо всех деталях пересылки и покупки и просто привезем вашу покупку к вам домой.</p>","description_uz":"<p>Kafolat muddati (oy): 12</p><p>Batafsil tavsiflari, fotosuratlari va texnik xususiyatlari bilan minglab mahsulot modellari bo'lgan eng yirik onlayn-do'kon. Saytda juda ko'p turli xil tovarlar sotiladi: kitoblar, o'yinchoqlar, elektronika, kiyim-kechak, aksessuarlar va boshqalar, ular yuqori sifatli va arzon. Biz bilan siz yetkazib berishni tezroq qabul qilasiz. Bundan tashqari, biz etkazib berish va sotib olishning barcha tafsilotlari bilan shug'ullanamiz va xaridingizni uyingizga olib boramiz.</p>","quantity":6,"price":8250000,"is_recommended":0,"is_popular":0,"is_new":1,"is_stock":1,"is_discounted":0,"image":null,"images":["https://sdb-storage.s3.us-east-2.amazonaws.com/user/1662789596844_apple_iphone-12_color-green_10132020.jpg","https://sdb-storage.s3.us-east-2.amazonaws.com/user/1662789646864_78655681.png"],"discount_type":null,"previous_price":0,"discount":0,"views":367,"order_count":null,"status":1,"created_at":"2022-09-10T01:03:56.000Z","updated_at":"2023-02-28T23:56:16.000Z","brand":{"id":4,"name_uz":"Apple","name_ru":"Apple"},"category":{"id":3,"name_uz":"Smartfonlar","name_ru":"Смартфоны"}},{"id":74,"product_id":null,"slug":"apple-iphone-11-4128-gb","name_uz":"Apple iPhone 11","name_ru":"Apple iPhone 11","desc_short_ru":null,"desc_short_uz":null,"description_ru":"<p><span style=\"color: rgb(51, 51, 51);\">Гарантийный срок (месяц): 1</span></p>","description_uz":"<p><span style=\"color: rgb(51, 51, 51);\">Kafolat muddati (oy): 1</span></p>","quantity":7,"price":6160000,"is_recommended":0,"is_popular":0,"is_new":1,"is_stock":1,"is_discounted":0,"image":null,"images":["https://sdb-storage.s3.us-east-2.amazonaws.com/user/1662788624096_$_57.jpg","https://sdb-storage.s3.us-east-2.amazonaws.com/user/1662788803346_iphone-11-black.jpg","https://sdb-storage.s3.us-east-2.amazonaws.com/user/1662788806188_30995.750x0.jpg"],"discount_type":null,"previous_price":0,"discount":0,"views":736,"order_count":null,"status":1,"created_at":"2022-09-10T00:55:31.000Z","updated_at":"2023-03-01T06:47:01.000Z","brand":{"id":4,"name_uz":"Apple","name_ru":"Apple"},"category":{"id":3,"name_uz":"Smartfonlar","name_ru":"Смартфоны"}},{"id":73,"product_id":null,"slug":"xiaomi-redmi-10a-364gb","name_uz":"Xiaomi Redmi 10A  2/32GB","name_ru":"Xiaomi Redmi 10A  2/32GB","desc_short_ru":null,"desc_short_uz":null,"description_ru":"<p>Гарантийный срок (месяц): 12</p><p>Его размеры 164.9x77.1x9 и вес 194 г. Он оснащен IPS LCD-дисплеем с размером 6.53\" дюйма. Разрешение составляет 720x1600 пикселей, плотность пикселей 269 ppi. Для селфи и видеозвонков отвечает Одна предна камера с 5 MP. Для базовых фото и видео доступная Одна задняя камера 13 MP. Процессор есть Octa-core (4x2.0 GHz Cortex-A53 &amp; 4x1.5 GHz Cortex-A53). Емкость аккумулятора 5000 mAh</p>","description_uz":"<p>Kafolat muddati (oy): 12</p><p>Uning o‘lchami 164,9x77,1x9, og‘irligi 194 g. U 6,53 duymli IPS LCD displey bilan jihozlangan. Ruxsat 720x1600 piksel, piksel zichligi 269 ppi. Selfi va videoqo‘ng‘iroqlar uchun 5 MPli bitta old kamera mas’ul. Asosiy fotosuratlar va videolar uchun bitta orqa kamera 13 MP. Protsessor 8 ta yadroli (4x2,0 GHz Cortex-A53 &amp; 4x1,5 GHz Cortex-A53). Batareya quvvati 5000 mAh.</p>","quantity":3,"price":1500000,"is_recommended":0,"is_popular":0,"is_new":1,"is_stock":1,"is_discounted":0,"image":null,"images":["https://sdb-storage.s3.us-east-2.amazonaws.com/user/1662724509337_CzlVacsG9c50J5fXlnr9xCBVgRg5aLIrRZpFqzyvg45eDSLQD92Dhnw22oVg_.jpg"],"discount_type":null,"previous_price":0,"discount":0,"views":161,"order_count":null,"status":1,"created_at":"2022-09-09T07:08:31.000Z","updated_at":"2023-03-01T00:02:51.000Z","brand":{"id":6,"name_uz":null,"name_ru":null},"category":{"id":3,"name_uz":"Smartfonlar","name_ru":"Смартфоны"}},{"id":72,"product_id":null,"slug":"xiaomi-redmi-10-4128gb","name_uz":"Xiaomi Redmi 10  4/128GB","name_ru":"Xiaomi Redmi 10  4/128GB","desc_short_ru":null,"desc_short_uz":null,"description_ru":"<p><span style=\"color: rgb(51, 51, 51);\">Гарантийный срок (месяц): 12</span></p>","description_uz":"<p><span style=\"color: rgb(51, 51, 51);\">Kafolat muddati (oy): 12</span></p>","quantity":3,"price":2120000,"is_recommended":0,"is_popular":0,"is_new":1,"is_stock":1,"is_discounted":0,"image":null,"images":["https://sdb-storage.s3.us-east-2.amazonaws.com/user/1662723197123_Без названия.jpg"],"discount_type":null,"previous_price":0,"discount":0,"views":265,"order_count":null,"status":1,"created_at":"2022-09-09T06:36:28.000Z","updated_at":"2023-03-01T07:20:33.000Z","brand":{"id":6,"name_uz":null,"name_ru":null},"category":{"id":3,"name_uz":"Smartfonlar","name_ru":"Смартфоны"}},{"id":71,"product_id":null,"slug":"xiaomi-redmi-10c-4128gb","name_uz":"Xiaomi Redmi 10C","name_ru":"Xiaomi Redmi 10C","desc_short_ru":null,"desc_short_uz":null,"description_ru":"<p>Гарантийный срок (месяц): 12</p><p>Его размеры 169.6x76.6x8.3 и вес 190 г. Он оснащен IPS LCD-дисплеем с размером 6.71\" дюйма. Разрешение составляет 1080x2400 пикселей, плотность пикселей 392 ppi. Для селфи и видеозвонков отвечает Одна предна камера с 5 MP. Для базовых фото и видео доступная Двойная задняя камера 50 MP. Процессор есть Octa-core (4x2.4 GHz Kryo 265 Gold &amp; 4x1.9 GHz Kryo 265 Silver). Емкость аккумулятора 5000 mAh.</p>","description_uz":"<p>Kafolat muddati (oy): 12</p><p>Uning o‘lchamlari 169.6x76.6x8.3, og‘irligi 190g. U 6,71 duymli IPS LCD displey bilan jihozlangan. Ruxsat 1080x2400 piksel, piksel zichligi 392 ppi. Selfi va videoqo‘ng‘iroqlar uchun 5 MP’li bitta old kamera javobgar. Asosiy fotosuratlar va videolar uchun ikkita orqa kamera, asosiy kamera 50 MP, protsessor 8 ta yadroli (4x2.4 GHz Kryo 265 Gold &amp; 4x1.9 GHz Kryo 265 Silver). Batareya quvvati 5000 mAh.</p>","quantity":6,"price":1930000,"is_recommended":0,"is_popular":0,"is_new":1,"is_stock":1,"is_discounted":0,"image":null,"images":["https://sdb-storage.s3.us-east-2.amazonaws.com/user/1662722484379_mspecs.png"],"discount_type":null,"previous_price":0,"discount":0,"views":249,"order_count":null,"status":1,"created_at":"2022-09-09T06:26:19.000Z","updated_at":"2023-02-28T16:17:39.000Z","brand":{"id":6,"name_uz":null,"name_ru":null},"category":{"id":3,"name_uz":"Smartfonlar","name_ru":"Смартфоны"}}],"newProducts":[{"id":142,"product_id":null,"slug":"kabel-borofone-bx17","name_uz":"Кабель Borofone BX17","name_ru":"Кабель Borofone BX17","desc_short_ru":null,"desc_short_uz":null,"description_ru":"<p>Длина</p><p>1 м</p><p>Коннекторы</p><p>USB 2.0 / Lightning</p><p>Коннекторы</p><p>USB 2.0 USB / Type-C</p><p>Коннекторы</p><p>USB to Micro-USB</p><p>Цвет</p><p>Черный</p><p>Цвет</p><p>Белый</p><p>Вес</p><p>28 г</p><p>Макс. ток</p><p>2 А</p><p>Коннекторы</p><p>3-in-1</p>","description_uz":"<p>Uzunligi__________1 m</p><p>Konnektorlar___USB 2.0 / Lightning</p><p>Konnektorlar___USB 2.0 USB / Type-C</p><p>Konnektorlar___USB to Micro-USB</p><p>Rangi________Qora</p><p>Rangi________Oq</p><p>Og‘irligi______28 g</p><p>Maks. tok____2 A</p><p>Konnektorlar__3-in-1</p><p><br></p>","quantity":5,"price":23999,"is_recommended":0,"is_popular":0,"is_new":1,"is_stock":1,"is_discounted":0,"image":null,"images":["https://sdb-storage.s3.us-east-2.amazonaws.com/user/1668770120099_borofone-bx17-enjoy-lightning-usb-charging-data-cable-package.jpg","https://sdb-storage.s3.us-east-2.amazonaws.com/user/1668770125866_borofone_bx17_microusb_white_4-800x800.jpg","https://sdb-storage.s3.us-east-2.amazonaws.com/user/1668770138012_Без названия (2).jpg"],"discount_type":null,"previous_price":0,"discount":0,"views":164,"order_count":null,"status":1,"created_at":"2022-11-18T06:15:55.000Z","updated_at":"2023-02-28T21:04:36.000Z","brand":{"id":14,"name_uz":"MSI","name_ru":"MSI"},"category":{"id":13,"name_uz":"Kabellar","name_ru":"Кабели"}},{"id":141,"product_id":null,"slug":"borofone-bx51-microusb","name_uz":"Кабель USB-MicroUSB Borofone BX51","name_ru":"Кабель USB-MicroUSB Borofone BX51","desc_short_ru":null,"desc_short_uz":null,"description_ru":"<p>Цвет___Черный</p><p>Цвет___Белый</p><p><br></p>","description_uz":"<p>Rangi____Qora</p><p>Rangi____Oq</p>","quantity":6,"price":24999,"is_recommended":0,"is_popular":0,"is_new":1,"is_stock":1,"is_discounted":0,"image":null,"images":["https://sdb-storage.s3.us-east-2.amazonaws.com/user/1668769789544_borofone-bx51-triumph-charging-data-cable-for-micro-usb-package-white.jpg","https://sdb-storage.s3.us-east-2.amazonaws.com/user/1668769793715_Borofone BX51 Triumph (Micro).png.crdownload","https://sdb-storage.s3.us-east-2.amazonaws.com/user/1668769816244_82d1fa27_385e_11eb_89fd_ee3d8138892f_cb8f8a70_45ea_11ec_ab4b_9418827b75b7.resize1.png","https://sdb-storage.s3.us-east-2.amazonaws.com/user/1668769819446_Без названия (1).jpg","https://sdb-storage.s3.us-east-2.amazonaws.com/user/1668769823192_4.jpg"],"discount_type":null,"previous_price":0,"discount":0,"views":63,"order_count":null,"status":1,"created_at":"2022-11-18T06:10:43.000Z","updated_at":"2023-02-28T22:37:14.000Z","brand":{"id":14,"name_uz":"MSI","name_ru":"MSI"},"category":{"id":13,"name_uz":"Kabellar","name_ru":"Кабели"}},{"id":140,"product_id":null,"slug":"kabel-borofone-bx37","name_uz":"Кабель Borofone BX37","name_ru":"Кабель Borofone BX37","desc_short_ru":null,"desc_short_uz":null,"description_ru":"<p>Длина____1 м</p><p>Цвет____<span style=\"background-color: transparent;\">Черный</span></p><p>Цвет____Белый</p><p>Вес_____20 г</p><p>Материал__PVC</p><p>Разъем 2____microUSB</p><p>Разъем 2____Type-C</p><p>Разъем 2____Lightning</p><p>Разъем 1____USB</p><p><br></p>","description_uz":"<p>Uzunligi_____1 m</p><p>Rangi______Qora</p><p>Rangi______Oq</p><p>Og‘irligi_____20 g</p><p>Material____PVC</p><p>Ulagich 2____microUSB</p><p>Ulagich 2____Type-C</p><p>Ulagich 2____Lightning</p><p>Ulagich 1____USB</p><p><br></p>","quantity":5,"price":33990,"is_recommended":0,"is_popular":0,"is_new":1,"is_stock":1,"is_discounted":0,"image":null,"images":["https://sdb-storage.s3.us-east-2.amazonaws.com/user/1668769396973_borofone-bx37-wieldy-charging-data-cable-for-usb-c-packages.jpg","https://sdb-storage.s3.us-east-2.amazonaws.com/user/1668769399120_AorKMCYxVQ41zXaBllBK0huA237xP8e9PDEnnWdTM4HHeVS1RwDxSqRfrLTR_.jpg","https://sdb-storage.s3.us-east-2.amazonaws.com/user/1668769403255_241898071.jpg","https://sdb-storage.s3.us-east-2.amazonaws.com/user/1668769408952_borofone-bx37-wieldy-charging-data-cable-for-lightning-connectors-black.jpg"],"discount_type":null,"previous_price":0,"discount":0,"views":46,"order_count":null,"status":1,"created_at":"2022-11-18T06:03:48.000Z","updated_at":"2023-02-28T15:51:22.000Z","brand":{"id":14,"name_uz":"MSI","name_ru":"MSI"},"category":{"id":13,"name_uz":"Kabellar","name_ru":"Кабели"}},{"id":139,"product_id":null,"slug":"kabel-hoco-x27","name_uz":"Кабель Hoco X27","name_ru":"Кабель Hoco X27","desc_short_ru":null,"desc_short_uz":null,"description_ru":"<p>Цвет</p><p>Красный</p><p>Цвет</p><p>Черный</p><p>Макс. ток</p><p>2.4 A</p><p>Длина</p><p>1.2 м</p><p>Цвет</p><p>Белый</p><p>Вес</p><p>18 г</p><p>Разъем 2</p><p>microUSB</p><p>Разъем 2</p><p>Type-C</p><p>Разъем 2</p><p>Lightning</p><p>Разъем 1</p><p>USB</p>","description_uz":"<p>Rangi</p><p>Qizil</p><p>Rangi</p><p>Qora</p><p>Maks. tok</p><p>2.4 A</p><p>Uzunligi</p><p>1.2 m</p><p>Rangi</p><p>Oq</p><p>Og‘irligi</p><p>18 g</p><p>Ulagich 2</p><p>microUSB</p><p>Ulagich 2</p><p>Type-C</p><p>Ulagich 2</p><p>Lightning</p><p>Ulagich 1</p><p>USB</p>","quantity":8,"price":29999,"is_recommended":0,"is_popular":0,"is_new":1,"is_stock":1,"is_discounted":0,"image":null,"images":["https://sdb-storage.s3.us-east-2.amazonaws.com/user/1668750827470_20026484_2-1200x800.jpeg","https://sdb-storage.s3.us-east-2.amazonaws.com/user/1668750830882_orig.webp","https://sdb-storage.s3.us-east-2.amazonaws.com/user/1668750834039_bcbfaa676ddb12fe0ff04a7ec1209b10.jpeg"],"discount_type":null,"previous_price":0,"discount":0,"views":142,"order_count":null,"status":1,"created_at":"2022-11-18T00:54:14.000Z","updated_at":"2023-03-01T01:13:42.000Z","brand":{"id":14,"name_uz":"MSI","name_ru":"MSI"},"category":{"id":13,"name_uz":"Kabellar","name_ru":"Кабели"}},{"id":138,"product_id":null,"slug":"xiaomi-redmi-power-bank-10000-mah","name_uz":"Xiaomi Redmi Power Bank 10000 mAh ","name_ru":"Xiaomi Redmi Power Bank 10000 mAh ","desc_short_ru":null,"desc_short_uz":null,"description_ru":"<p>Одновременная зарядка двух устройств</p><p>Есть</p><p>Емкость</p><p>10000mAh</p><p>Напряжение батареи</p><p>5 В</p><p>Входной ток</p><p>2,1 А</p><p>Максимальный ток</p><p>2.4 А</p><p>Разъем</p><p>USBx2</p><p>Максимальный ток на USB</p><p>2.4 А</p><p>Тип батареи</p><p>Li-Polymer</p><p>Материал</p><p>Пластик</p><p>Размеры</p><p>151x74x15 мм</p><p>Комплектация</p><p>Кабель USB Micro</p><p>Цвет</p><p>Черный</p><p>Цвет</p><p>Белый</p>","description_uz":"<p>Bittada 2 ta qurilman quvvatlantirish</p><p>Mavjud</p><p>Sig‘imi</p><p>10000mAh</p><p>Batareya zo‘riqishi</p><p>5 V</p><p>Kirish toki</p><p>2,1 A</p><p>Maksimal tok</p><p>2.4 A</p><p>Ulagich qismi</p><p>USBx2</p><p>USB maksimal toki</p><p>2.4 A</p><p>Batareya turi</p><p>Li-Polymer</p><p>Material</p><p>Plastik</p><p>O‘lchamlari</p><p>151x74x15 mm</p><p>Paket to‘plami</p><p>Kabel USB Micro</p><p>Rangi</p><p>Qora</p><p>Rangi</p><p>Oq</p>","quantity":3,"price":199000,"is_recommended":0,"is_popular":0,"is_new":1,"is_stock":1,"is_discounted":0,"image":null,"images":["https://sdb-storage.s3.us-east-2.amazonaws.com/user/1668660979314_UbUo3T2A8stUxxMhAudPUlOJNAUG7e84acYrcYL1.jpg","https://sdb-storage.s3.us-east-2.amazonaws.com/user/1668660983535_12_fb949a22-8f9d-4f3f-8b6e-cac6f88ee306_1024x1024.webp","https://sdb-storage.s3.us-east-2.amazonaws.com/user/1668660987647_sGIFVPy51TMXVSElL29mx4QvyE8gao8xBWm2i8ND.jpg"],"discount_type":null,"previous_price":0,"discount":0,"views":37,"order_count":null,"status":1,"created_at":"2022-11-16T23:56:40.000Z","updated_at":"2023-03-01T04:22:01.000Z","brand":{"id":14,"name_uz":"MSI","name_ru":"MSI"},"category":{"id":11,"name_uz":"Power bank","name_ru":"Power bank"}},{"id":137,"product_id":null,"slug":"tashqi-akkumulyator-borofone-bj14","name_uz":"Внешний аккумулятор Borofone BJ14","name_ru":"Внешний аккумулятор Borofone BJ14","desc_short_ru":null,"desc_short_uz":null,"description_ru":"<p>Разъем</p><p>USBx2</p><p>Емкость</p><p>10000 mAh (37 Вт⋅ч)</p><p>Индикатор заряда</p><p>Есть</p><p>Выходной ток</p><p>2 А</p><p>Цвет</p><p>Черный</p><p>Коннекторы</p><p>USB-C</p><p>Размеры</p><p>143 x 68 x 28 мм</p><p>Вес</p><p>260 г</p>","description_uz":"<p>Ulagich qismi</p><p>USBx2</p><p>Sig‘imi</p><p>10000 mAh (37 Vt⋅c)</p><p>Zaryad ko‘rsatkichi</p><p>Mavjud</p><p>Chiqish toki</p><p>2 A</p><p>Rangi</p><p>Qora</p><p>Konnektorlar</p><p>USB-C</p><p>O‘lchamlari</p><p>143 x 68 x 28 mm</p><p>Vazni</p><p>260 g</p>","quantity":5,"price":189000,"is_recommended":0,"is_popular":0,"is_new":1,"is_stock":1,"is_discounted":0,"image":null,"images":["https://sdb-storage.s3.us-east-2.amazonaws.com/user/1668660513767_Borofone-BJ14-Power-bank-10000mAh-3.jpg","https://sdb-storage.s3.us-east-2.amazonaws.com/user/1668660517714_111-2.jpg","https://sdb-storage.s3.us-east-2.amazonaws.com/user/1668660521406_Borofone-BJ14-Power-bank-10000mAh.jpg"],"discount_type":null,"previous_price":0,"discount":0,"views":142,"order_count":null,"status":1,"created_at":"2022-11-16T23:49:29.000Z","updated_at":"2023-03-01T02:51:12.000Z","brand":{"id":14,"name_uz":"MSI","name_ru":"MSI"},"category":{"id":11,"name_uz":"Power bank","name_ru":"Power bank"}},{"id":136,"product_id":null,"slug":"simsiz-dinamik-celebrat-sky-3","name_uz":"Simsiz dinamik Celebrat SKY-3","name_ru":"Беспроводная колонка Celebrat SKY-3 ","desc_short_ru":null,"desc_short_uz":null,"description_ru":"<p>Тип</p><p>Портативная</p><p>Материал корпуса</p><p>Пластик</p><p>FM-приемник</p><p>Есть</p><p>Цвет</p><p>Чёрный</p><p>Беспроводная связь</p><p>Bluetooth</p><p>Аккумулятор</p><p>1200 мАч</p><p>Версия Bluetooth</p><p>V5.0</p><p>Время зарядки</p><p>2.5 часов</p><p>Вес</p><p>327 г</p>","description_uz":"<p>Turi</p><p>Portativ</p><p>Korpus materiali</p><p>Plastik</p><p>FM-radio</p><p>Mavjud</p><p>Rangi</p><p>Qora rang</p><p>Simsiz ulanish</p><p>Bluetooth</p><p>Batareya</p><p>1200 mAch</p><p>Bluetooth versiyasi</p><p>V5.0</p><p>Zaryadlash vaqti</p><p>2.5 soat</p><p>Og’irlik</p><p>327 g</p>","quantity":5,"price":139000,"is_recommended":0,"is_popular":0,"is_new":1,"is_stock":1,"is_discounted":0,"image":null,"images":["https://sdb-storage.s3.us-east-2.amazonaws.com/user/1668587676790_166048248541225600166.avif","https://sdb-storage.s3.us-east-2.amazonaws.com/user/1668587681907_11821.970.png","https://sdb-storage.s3.us-east-2.amazonaws.com/user/1668587696648_11821.970.png","https://sdb-storage.s3.us-east-2.amazonaws.com/user/1668587705116_166048248541225600166.avif"],"discount_type":null,"previous_price":0,"discount":0,"views":46,"order_count":null,"status":1,"created_at":"2022-11-16T03:36:18.000Z","updated_at":"2023-03-01T07:35:24.000Z","brand":{"id":14,"name_uz":"MSI","name_ru":"MSI"},"category":{"id":17,"name_uz":"Speaker","name_ru":"Speaker"}},{"id":135,"product_id":null,"slug":"simsiz-dinamik-hoco-hc1","name_uz":"Simsiz dinamik Hoco HC1","name_ru":"Беспроводной динамик Hoco HC1","desc_short_ru":null,"desc_short_uz":null,"description_ru":"<p>Вес</p><p>380 g</p><p>Цвет</p><p>Чёрный</p><p>Цвет</p><p>Синий</p><p>Цвет</p><p>Красный</p><p>Цвет</p><p>темно-зеленый</p><p>Цвет</p><p>Камуфляж</p><p>Емкость батареи</p><p>1200 mAh</p><p>Время зарядки</p><p>около 2 часов</p><p>Версия Bluetooth</p><p>V5.0</p><p>Время воспроизведения музыки</p><p>4 часов</p><p>Размер</p><p>142x85x85 мм</p>","description_uz":"<p>Og’irlik</p><p>380 g</p><p>Rangi</p><p>Qora rang</p><p>Rangi</p><p>Ko‘k rang</p><p>Rangi</p><p>Qizil</p><p>Rangi</p><p>to‘q yashil</p><p>Rangi</p><p>Kamuflyaj</p><p>Batareya quvvati</p><p>1200 mAh</p><p>Zaryadlash vaqti</p><p>taxminan 2 soat</p><p>Bluetooth versiyasi</p><p>V5.0</p><p>Musiqa tinglash vaqti</p><p>4 soat</p><p>O‘lcham</p><p>142x85x85 mm</p>","quantity":6,"price":149000,"is_recommended":0,"is_popular":0,"is_new":1,"is_stock":1,"is_discounted":0,"image":null,"images":["https://sdb-storage.s3.us-east-2.amazonaws.com/user/1668587164041_Ha0c04a9599e44036b4609c58599a8029X.jpg"],"discount_type":null,"previous_price":0,"discount":0,"views":145,"order_count":null,"status":1,"created_at":"2022-11-16T03:26:37.000Z","updated_at":"2023-03-01T05:03:22.000Z","brand":{"id":14,"name_uz":"MSI","name_ru":"MSI"},"category":{"id":17,"name_uz":"Speaker","name_ru":"Speaker"}},{"id":134,"product_id":null,"slug":"kabel-hoco-x70-lightning","name_uz":"Кабель Hoco X70 Lightning","name_ru":"Кабель Hoco X70 Lightning","desc_short_ru":null,"desc_short_uz":null,"description_ru":"<p>Длина</p><p>1 м</p><p>Цвет</p><p>Белый</p><p>Вес</p><p>22 г</p><p>Разъем 2</p><p>Lightning</p><p>Разъем 1</p><p>USB</p><p>Материал</p><p>ABS + TPE</p>","description_uz":"<p>Uzunligi</p><p>1 m</p><p>Rangi</p><p>Oq</p><p>Og‘irligi</p><p>22 g</p><p>Ulagich 2</p><p>Lightning</p><p>Ulagich 1</p><p>USB</p><p>Material</p><p>ABS + TPE</p>","quantity":7,"price":34999,"is_recommended":0,"is_popular":0,"is_new":1,"is_stock":1,"is_discounted":0,"image":null,"images":["https://sdb-storage.s3.us-east-2.amazonaws.com/user/1668578138704_photo_2022-11-16_10-55-13.jpg","https://sdb-storage.s3.us-east-2.amazonaws.com/user/1668578141492_photo_2022-11-16_10-55-20.jpg","https://sdb-storage.s3.us-east-2.amazonaws.com/user/1668578144651_photo_2022-11-16_10-55-26.jpg"],"discount_type":null,"previous_price":0,"discount":0,"views":145,"order_count":null,"status":1,"created_at":"2022-11-16T00:56:06.000Z","updated_at":"2023-03-01T04:48:02.000Z","brand":{"id":14,"name_uz":"MSI","name_ru":"MSI"},"category":{"id":13,"name_uz":"Kabellar","name_ru":"Кабели"}},{"id":133,"product_id":null,"slug":"avtomobilda-zaryadlovchi-qurilma-borofone-bz14a","name_uz":"Автомобильное зарядное устройство Borofone BZ14A","name_ru":"Автомобильное зарядное устройство Borofone BZ14A","desc_short_ru":null,"desc_short_uz":null,"description_ru":"<p>Материал</p><p>ABS + PC</p><p>Интерфейс</p><p>USB-C</p><p>Размер (ШxВxД)</p><p>65x29x24 мм</p><p>Вес</p><p>20 г</p><p>Вес</p><p>40 г</p><p>Цвет</p><p>Черный</p><p>Цвет</p><p>Белый</p><p>Интерфейс</p><p>USB-A</p><p>Комплектация</p><p>USB-C - Lightning</p><p>Комплектация</p><p>USB-C - USB-C</p><p>Длина кабеля</p><p>1 м</p><p>Комплектация</p><p>Без кабеля</p>","description_uz":"<p>Material</p><p>ABS + PC</p><p>Interfeys</p><p>USB-C</p><p>Xajmi</p><p>65x29x24 mm</p><p>Og‘irlik</p><p>20 g</p><p>Og‘irlik</p><p>40 g</p><p>Rangi</p><p>Qora</p><p>Rangi</p><p>Oq</p><p>Interfeys</p><p>USB-A</p><p>Uskunalar</p><p>USB-C - Lightning</p><p>Uskunalar</p><p>USB-C - USB-C</p><p>Kabel uzunligi</p><p>1 m</p><p>Uskunalar</p><p>Kabelsiz</p>","quantity":9,"price":59999,"is_recommended":0,"is_popular":0,"is_new":1,"is_stock":1,"is_discounted":0,"image":null,"images":["https://sdb-storage.s3.us-east-2.amazonaws.com/user/1668530051203_IMG_20221115_205618_242.jpg","https://sdb-storage.s3.us-east-2.amazonaws.com/user/1668530055583_IMG_20221115_205622_381.jpg","https://sdb-storage.s3.us-east-2.amazonaws.com/user/1668530061209_IMG_20221115_205625_531.jpg"],"discount_type":null,"previous_price":0,"discount":0,"views":54,"order_count":null,"status":1,"created_at":"2022-11-15T11:29:22.000Z","updated_at":"2023-03-01T00:02:51.000Z","brand":{"id":14,"name_uz":"MSI","name_ru":"MSI"},"category":{"id":15,"name_uz":"Zaryadlovchi qurilmalar","name_ru":"Зарядные устройства"}},{"id":132,"product_id":null,"slug":"kabeli-usb-c-na-usb-c-bx62","name_uz":"Кабель USB-C на USB-C BX62","name_ru":"Кабель USB-C на USB-C BX62","desc_short_ru":null,"desc_short_uz":null,"description_ru":"<p>Длина</p><p>1 м</p><p>Цвет</p><p>Черный</p><p>Тип</p><p>Кабель</p><p>Тип провода</p><p>Type-C</p>","description_uz":"<p>Uzunligi</p><p>1 m</p><p>Rangi</p><p>Qora</p><p>Turi</p><p>Kabel</p><p>Sim turi:</p><p>Type-C</p>","quantity":20,"price":45000,"is_recommended":0,"is_popular":0,"is_new":1,"is_stock":1,"is_discounted":0,"image":null,"images":["https://sdb-storage.s3.us-east-2.amazonaws.com/user/1668500591298_photo_2022-11-15_13-22-29.jpg","https://sdb-storage.s3.us-east-2.amazonaws.com/user/1668500595244_photo_2022-11-15_13-22-37.jpg","https://sdb-storage.s3.us-east-2.amazonaws.com/user/1668500599640_photo_2022-11-15_13-22-51.jpg"],"discount_type":null,"previous_price":0,"discount":0,"views":141,"order_count":null,"status":1,"created_at":"2022-11-15T03:23:59.000Z","updated_at":"2023-02-27T22:48:01.000Z","brand":{"id":14,"name_uz":"MSI","name_ru":"MSI"},"category":{"id":13,"name_uz":"Kabellar","name_ru":"Кабели"}},{"id":131,"product_id":null,"slug":"usb-kabeli-borofone-bx51-microusb","name_uz":"Кабель USB-MicroUSB Borofone BX51","name_ru":"Кабель USB-MicroUSB Borofone BX51","desc_short_ru":null,"desc_short_uz":null,"description_ru":"<p>Цвет</p><p>Черный</p><p>Цвет</p><p>Белый</p>","description_uz":"<p>Rangi</p><p>Qora</p><p>Rangi</p><p>Oq</p>","quantity":20,"price":35000,"is_recommended":0,"is_popular":0,"is_new":1,"is_stock":1,"is_discounted":0,"image":null,"images":["https://sdb-storage.s3.us-east-2.amazonaws.com/user/1668414510721_borofone-bx51-triumph-charging-data-cable-for-micro-usb-packages.jpg"],"discount_type":null,"previous_price":0,"discount":0,"views":152,"order_count":null,"status":1,"created_at":"2022-11-14T03:28:58.000Z","updated_at":"2023-02-28T13:26:34.000Z","brand":{"id":14,"name_uz":"MSI","name_ru":"MSI"},"category":{"id":13,"name_uz":"Kabellar","name_ru":"Кабели"}}]},"__N_SSG":true}